[{"OBJECT_NAME":"STARLINK-1726","OBJECT_ID":"2020-062AP","EPOCH":"2025-08-02T07:32:29.090112","MEAN_MOTION":15.25228291,"ECCENTRICITY":0.0003903,"INCLINATION":53.0611,"RA_OF_ASC_NODE":232.3655,"ARG_OF_PERICENTER":11.1307,"MEAN_ANOMALY":348.9776,"EPHEMERIS_TYPE":0,"CLASSIFICATION_TYPE":"U","NORAD_CAT_ID":46362,"ELEMENT_SET_NO":999,"REV_AT_EPOCH":27211,"BSTAR":0.0017166,"MEAN_MOTION_DOT":0.0004362,"MEAN_MOTION_DDOT":0},{"OBJECT_NAME":"STARLINK-1651","OBJECT_ID":"2020-062AT","EPOCH":"2025-08-02T07:52:57.632448","MEAN_MOTION":15.06397032,"ECCENTRICITY":0.0001366,"INCLINATION":53.0548,"RA_OF_ASC_NODE":236.3714,"ARG_OF_PERICENTER":87.2001,"MEAN_ANOMALY":272.9144,"EPHEMERIS_TYPE":0,"CLASSIFICATION_TYPE":"U","NORAD_CAT_ID":46366,"ELEMENT_SET_NO":999,"REV_AT_EPOCH":27187,"BSTAR":3.7192e-5,"MEAN_MOTION_DOT":2.73e-6,"MEAN_MOTION_DDOT":0},{"OBJECT_NAME":"STARLINK-1689","OBJECT_ID":"2020-062AZ","EPOCH":"2025-08-02T22:00:01.999584","MEAN_MOTION":15.78226869,"ECCENTRICITY":0.0009717,"INCLINATION":53.03,"RA_OF_ASC_NODE":208.4064,"ARG_OF_PERICENTER":6.8068,"MEAN_ANOMALY":171.5087,"EPHEMERIS_TYPE":0,"CLASSIFICATION_TYPE":"U","NORAD_CAT_ID":46372,"ELEMENT_SET_NO":999,"REV_AT_EPOCH":27250,"BSTAR":0.001882,"MEAN_MOTION_DOT":0.00342971,"MEAN_MOTION_DDOT":0},{"OBJECT_NAME":"STARLINK-1724","OBJECT_ID":"2020-062BC","EPOCH":"2025-08-02T11:40:51.826944","MEAN_MOTION":15.17998533,"ECCENTRICITY":0.0003785,"INCLINATION":53.0552,"RA_OF_ASC_NODE":233.2206,"ARG_OF_PERICENTER":14.4844,"MEAN_ANOMALY":345.6258,"EPHEMERIS_TYPE":0,"CLASSIFICATION_TYPE":"U","NORAD_CAT_ID":46375,"ELEMENT_SET_NO":999,"REV_AT_EPOCH":27211,"BSTAR":0.0013543,"MEAN_MOTION_DOT":0.00027667,"MEAN_MOTION_DDOT":0},{"OBJECT_NAME":"STARLINK-1742","OBJECT_ID":"2020-062BD","EPOCH":"2025-08-02T09:42:29.909376","MEAN_MOTION":15.24742011,"ECCENTRICITY":0.000803,"INCLINATION":53.0455,"RA_OF_ASC_NODE":223.3974,"ARG_OF_PERICENTER":72.6017,"MEAN_ANOMALY":287.5858,"EPHEMERIS_TYPE":0,"CLASSIFICATION_TYPE":"U","NORAD_CAT_ID":46376,"ELEMENT_SET_NO":999,"REV_AT_EPOCH":27206,"BSTAR":0.0016083,"MEAN_MOTION_DOT":0.00040259,"MEAN_MOTION_DDOT":0},{"OBJECT_NAME":"STARLINK-1769","OBJECT_ID":"2020-062BK","EPOCH":"2025-08-02T11:35:52.094112","MEAN_MOTION":15.06410799,"ECCENTRICITY":0.0001224,"INCLINATION":53.0527,"RA_OF_ASC_NODE":235.6777,"ARG_OF_PERICENTER":96.0594,"MEAN_ANOMALY":264.0535,"EPHEMERIS_TYPE":0,"CLASSIFICATION_TYPE":"U","NORAD_CAT_ID":46382,"ELEMENT_SET_NO":999,"REV_AT_EPOCH":27190,"BSTAR":0.0002184,"MEAN_MOTION_DOT":2.974e-5,"MEAN_MOTION_DDOT":0},{"OBJECT_NAME":"STARLINK-1770","OBJECT_ID":"2020-062BL","EPOCH":"2025-08-02T14:16:37.709760","MEAN_MOTION":15.26604166,"ECCENTRICITY":0.0003487,"INCLINATION":53.0542,"RA_OF_ASC_NODE":275.9048,"ARG_OF_PERICENTER":345.5137,"MEAN_ANOMALY":14.576,"EPHEMERIS_TYPE":0,"CLASSIFICATION_TYPE":"U","NORAD_CAT_ID":46383,"ELEMENT_SET_NO":999,"REV_AT_EPOCH":27134,"BSTAR":0.0016862,"MEAN_MOTION_DOT":0.00044669,"MEAN_MOTION_DDOT":0},{"OBJECT_NAME":"STARLINK-1771","OBJECT_ID":"2020-062BM","EPOCH":"2025-08-02T11:21:56.669184","MEAN_MOTION":15.06392401,"ECCENTRICITY":0.0001298,"INCLINATION":53.0543,"RA_OF_ASC_NODE":280.7215,"ARG_OF_PERICENTER":88.8322,"MEAN_ANOMALY":271.2815,"EPHEMERIS_TYPE":0,"CLASSIFICATION_TYPE":"U","NORAD_CAT_ID":46384,"ELEMENT_SET_NO":999,"REV_AT_EPOCH":27144,"BSTAR":-5.4982e-6,"MEAN_MOTION_DOT":-3.63e-6,"MEAN_MOTION_DDOT":0},{"OBJECT_NAME":"STARLINK-1648","OBJECT_ID":"2020-070B","EPOCH":"2025-08-02T00:29:05.942688","MEAN_MOTION":15.06399883,"ECCENTRICITY":0.0001422,"INCLINATION":53.0531,"RA_OF_ASC_NODE":82.7551,"ARG_OF_PERICENTER":88.0425,"MEAN_ANOMALY":272.0727,"EPHEMERIS_TYPE":0,"CLASSIFICATION_TYPE":"U","NORAD_CAT_ID":46533,"ELEMENT_SET_NO":999,"REV_AT_EPOCH":26639,"BSTAR":0.00025462,"MEAN_MOTION_DOT":3.513e-5,"MEAN_MOTION_DDOT":0},{"OBJECT_NAME":"STARLINK-1663","OBJECT_ID":"2020-070D","EPOCH":"2025-08-01T15:48:56.159712","MEAN_MOTION":15.0639605,"ECCENTRICITY":0.0001288,"INCLINATION":53.0536,"RA_OF_ASC_NODE":84.3756,"ARG_OF_PERICENTER":89.7636,"MEAN_ANOMALY":270.35,"EPHEMERIS_TYPE":0,"CLASSIFICATION_TYPE":"U","NORAD_CAT_ID":46535,"ELEMENT_SET_NO":999,"REV_AT_EPOCH":26633,"BSTAR":0.0001662,"MEAN_MOTION_DOT":2.195e-5,"MEAN_MOTION_DDOT":0},{"OBJECT_NAME":"STARLINK-1672","OBJECT_ID":"2020-070F","EPOCH":"2025-08-02T14:43:38.187552","MEAN_MOTION":15.06397657,"ECCENTRICITY":0.0001441,"INCLINATION":53.0556,"RA_OF_ASC_NODE":80.0917,"ARG_OF_PERICENTER":93.6088,"MEAN_ANOMALY":266.5066,"EPHEMERIS_TYPE":0,"CLASSIFICATION_TYPE":"U","NORAD_CAT_ID":46537,"ELEMENT_SET_NO":999,"REV_AT_EPOCH":26619,"BSTAR":0.00022127,"MEAN_MOTION_DOT":3.016e-5,"MEAN_MOTION_DDOT":0},{"OBJECT_NAME":"STARLINK-1678","OBJECT_ID":"2020-070G","EPOCH":"2025-08-02T14:00:01.000224","MEAN_MOTION":15.30744468,"ECCENTRICITY":8.37e-5,"INCLINATION":53.0554,"RA_OF_ASC_NODE":78.5787,"ARG_OF_PERICENTER":96.1041,"MEAN_ANOMALY":348.8696,"EPHEMERIS_TYPE":0,"CLASSIFICATION_TYPE":"U","NORAD_CAT_ID":46538,"ELEMENT_SET_NO":999,"REV_AT_EPOCH":584,"BSTAR":0.0023892,"MEAN_MOTION_DOT":0.00072311,"MEAN_MOTION_DDOT":0},{"OBJECT_NAME":"STARLINK-1687","OBJECT_ID":"2020-070K","EPOCH":"2025-08-02T13:42:37.109376","MEAN_MOTION":15.06400257,"ECCENTRICITY":0.0001296,"INCLINATION":53.0547,"RA_OF_ASC_NODE":60.2782,"ARG_OF_PERICENTER":94.2717,"MEAN_ANOMALY":265.842,"EPHEMERIS_TYPE":0,"CLASSIFICATION_TYPE":"U","NORAD_CAT_ID":46541,"ELEMENT_SET_NO":999,"REV_AT_EPOCH":26675,"BSTAR":0.00013833,"MEAN_MOTION_DOT":1.78e-5,"MEAN_MOTION_DDOT":0},{"OBJECT_NAME":"STARLINK-1692","OBJECT_ID":"2020-070L","EPOCH":"2025-07-31T23:29:01.497984","MEAN_MOTION":15.39804164,"ECCENTRICITY":0.0004514,"INCLINATION":53.0405,"RA_OF_ASC_NODE":62.0045,"ARG_OF_PERICENTER":205.4671,"MEAN_ANOMALY":154.6111,"EPHEMERIS_TYPE":0,"CLASSIFICATION_TYPE":"U","NORAD_CAT_ID":46542,"ELEMENT_SET_NO":999,"REV_AT_EPOCH":26660,"BSTAR":0.0026009,"MEAN_MOTION_DOT":0.00105761,"MEAN_MOTION_DDOT":0},{"OBJECT_NAME":"STARLINK-1693","OBJECT_ID":"2020-070M","EPOCH":"2025-08-02T22:00:01.999584","MEAN_MOTION":15.96670071,"ECCENTRICITY":0.0011685,"INCLINATION":53.0374,"RA_OF_ASC_NODE":358.7953,"ARG_OF_PERICENTER":281.4887,"MEAN_ANOMALY":152.3995,"EPHEMERIS_TYPE":0,"CLASSIFICATION_TYPE":"U","NORAD_CAT_ID":46543,"ELEMENT_SET_NO":999,"REV_AT_EPOCH":26767,"BSTAR":0.0015418,"MEAN_MOTION_DOT":0.00672705,"MEAN_MOTION_DDOT":0.00020531},{"OBJECT_NAME":"STARLINK-1700","OBJECT_ID":"2020-070T","EPOCH":"2025-08-02T12:57:10.092096","MEAN_MOTION":15.33982758,"ECCENTRICITY":0.0004376,"INCLINATION":53.052,"RA_OF_ASC_NODE":58.1872,"ARG_OF_PERICENTER":167.392,"MEAN_ANOMALY":192.7191,"EPHEMERIS_TYPE":0,"CLASSIFICATION_TYPE":"U","NORAD_CAT_ID":46549,"ELEMENT_SET_NO":999,"REV_AT_EPOCH":26678,"BSTAR":0.0020115,"MEAN_MOTION_DOT":0.00067316,"MEAN_MOTION_DDOT":0},{"OBJECT_NAME":"STARLINK-1664","OBJECT_ID":"2020-070X","EPOCH":"2025-08-02T13:22:42.094560","MEAN_MOTION":15.06403532,"ECCENTRICITY":0.0002976,"INCLINATION":53.0524,"RA_OF_ASC_NODE":50.3511,"ARG_OF_PERICENTER":107.4344,"MEAN_ANOMALY":252.697,"EPHEMERIS_TYPE":0,"CLASSIFICATION_TYPE":"U","NORAD_CAT_ID":46553,"ELEMENT_SET_NO":999,"REV_AT_EPOCH":26690,"BSTAR":0.00022145,"MEAN_MOTION_DOT":3.018e-5,"MEAN_MOTION_DDOT":0}]
