STARLINK-1726           
1 46362U 20062AP  25214.31422558  .00043620  00000+0  17166-2 0  9992
2 46362  53.0611 232.3655 0003903  11.1307 348.9776 15.25228291272117
STARLINK-1651           
1 46366U 20062AT  25214.32844482  .00000273  00000+0  37192-4 0  9991
2 46366  53.0548 236.3714 0001366  87.2001 272.9144 15.06397032271872
STARLINK-1689           
1 46372U 20062AZ  25214.91668981  .00342971  00000+0  18820-2 0  9990
2 46372  53.0300 208.4064 0009717   6.8068 171.5087 15.78226869272500
STARLINK-1724           
1 46375U 20062BC  25214.48671096  .00027667  00000+0  13543-2 0  9995
2 46375  53.0552 233.2206 0003785  14.4844 345.6258 15.17998533272110
STARLINK-1742           
1 46376U 20062BD  25214.40451284  .00040259  00000+0  16083-2 0  9997
2 46376  53.0455 223.3974 0008030  72.6017 287.5858 15.24742011272061
STARLINK-1769           
1 46382U 20062BK  25214.48324183  .00002974  00000+0  21840-3 0  9999
2 46382  53.0527 235.6777 0001224  96.0594 264.0535 15.06410799271902
STARLINK-1770           
1 46383U 20062BL  25214.59488090  .00044669  00000+0  16862-2 0  9994
2 46383  53.0542 275.9048 0003487 345.5137  14.5760 15.26604166271347
STARLINK-1771           
1 46384U 20062BM  25214.47357256 -.00000363  00000+0 -54982-5 0  9994
2 46384  53.0543 280.7215 0001298  88.8322 271.2815 15.06392401271448
STARLINK-1648           
1 46533U 20070B   25214.02020767  .00003513  00000+0  25462-3 0  9991
2 46533  53.0531  82.7551 0001422  88.0425 272.0727 15.06399883266399
STARLINK-1663           
1 46535U 20070D   25213.65898333  .00002195  00000+0  16620-3 0  9994
2 46535  53.0536  84.3756 0001288  89.7636 270.3500 15.06396050266330
STARLINK-1672           
1 46537U 20070F   25214.61363643  .00003016  00000+0  22127-3 0  9996
2 46537  53.0556  80.0917 0001441  93.6088 266.5066 15.06397657266194
STARLINK-1678           
1 46538U 20070G   25214.58334491  .00072311  00000+0  23892-2 0  9995
2 46538  53.0554  78.5787 0000837  96.1041 348.8696 15.30744468  5844
STARLINK-1687           
1 46541U 20070K   25214.57126284  .00001780  00000+0  13833-3 0  9994
2 46541  53.0547  60.2782 0001296  94.2717 265.8420 15.06400257266752
STARLINK-1692           
1 46542U 20070L   25212.97848956  .00105761  00000+0  26009-2 0  9996
2 46542  53.0405  62.0045 0004514 205.4671 154.6111 15.39804164266606
STARLINK-1693           
1 46543U 20070M   25214.91668981  .00672705  20531-3  15418-2 0  9995
2 46543  53.0374 358.7953 0011685 281.4887 152.3995 15.96670071267679
STARLINK-1700           
1 46549U 20070T   25214.53970014  .00067316  00000+0  20115-2 0  9993
2 46549  53.0520  58.1872 0004376 167.3920 192.7191 15.33982758266784
STARLINK-1664           
1 46553U 20070X   25214.55743165  .00003018  00000+0  22145-3 0  9990
2 46553  53.0524  50.3511 0002976 107.4344 252.6970 15.06403532266909
